COSMOS 2503             
1 40420U 15009A   26068.69626972  .00002817  00000+0  19590-3 0  9998
2 40420  97.8437 123.7175 0015321 225.7450 134.2520 15.06275973603958
STARLINK-5787           
1 56004U 23042U   26068.02090933 -.00000861  00000+0 -48641-4 0  9997
2 56004  43.0055  59.4097 0001467 270.8583  89.2091 15.02528532162819
