[{"OBJECT_NAME":"COSMOS 2503","OBJECT_ID":"2015-009A","EPOCH":"2026-03-09T16:42:37.703808","MEAN_MOTION":15.06275973,"ECCENTRICITY":0.00153206,"INCLINATION":97.8437,"RA_OF_ASC_NODE":123.7175,"ARG_OF_PERICENTER":225.745,"MEAN_ANOMALY":134.252,"EPHEMERIS_TYPE":0,"CLASSIFICATION_TYPE":"U","NORAD_CAT_ID":40420,"ELEMENT_SET_NO":999,"REV_AT_EPOCH":60395,"BSTAR":0.00019589832,"MEAN_MOTION_DOT":2.817e-5,"MEAN_MOTION_DDOT":0},{"OBJECT_NAME":"STARLINK-5787","OBJECT_ID":"2023-042U","EPOCH":"2026-03-09T00:30:06.566112","MEAN_MOTION":15.02528532,"ECCENTRICITY":0.00014679,"INCLINATION":43.0055,"RA_OF_ASC_NODE":59.4097,"ARG_OF_PERICENTER":270.8583,"MEAN_ANOMALY":89.2091,"EPHEMERIS_TYPE":0,"CLASSIFICATION_TYPE":"U","NORAD_CAT_ID":56004,"ELEMENT_SET_NO":999,"REV_AT_EPOCH":16281,"BSTAR":-4.8640846e-5,"MEAN_MOTION_DOT":-8.61e-6,"MEAN_MOTION_DDOT":0}]
